{
  "norad_id": 68598,
  "name": "KUIPER-00301",
  "history": [
    {
      "epoch": "2026-04-09T12:08:59.712288Z",
      "apogee_km": 462.8793853071911,
      "perigee_km": 450.6189664848689,
      "latitude_deg": 4.3588933351469974e-06,
      "longitude_deg": 129.1113392395763,
      "height_km": 461.65642317518615,
      "semi_major_axis_km": 6834.886175896029,
      "eccentricity": 0.0008969,
      "inclination_deg": 51.8646,
      "raan_deg": 149.1136,
      "arg_perigee_deg": 132.6902,
      "mean_anomaly_deg": 227.4841,
      "mean_motion_rev_day": 15.36405426
    },
    {
      "epoch": "2026-04-09T12:08:59.713152Z",
      "apogee_km": 462.87904356288163,
      "perigee_km": 450.6193082291775,
      "latitude_deg": 7.695265102303594e-06,
      "longitude_deg": 129.11133823459014,
      "height_km": 461.65619146798724,
      "semi_major_axis_km": 6834.886175896029,
      "eccentricity": 0.00089685,
      "inclination_deg": 51.8646,
      "raan_deg": 149.1136,
      "arg_perigee_deg": 132.6902,
      "mean_anomaly_deg": 227.4841,
      "mean_motion_rev_day": 15.36405426
    },
    {
      "epoch": "2026-04-11T20:00:01.000224Z",
      "apogee_km": 462.718848675795,
      "perigee_km": 450.522906718832,
      "latitude_deg": -50.945256698788135,
      "longitude_deg": -76.38885500028152,
      "height_km": 478.65336698556223,
      "semi_major_axis_km": 6834.757877697313,
      "eccentricity": 0.0008922,
      "inclination_deg": 51.8647,
      "raan_deg": 137.8743,
      "arg_perigee_deg": 141.6149,
      "mean_anomaly_deg": 138.2439,
      "mean_motion_rev_day": 15.36448687
    },
    {
      "epoch": "2026-04-13T06:00:02.000160Z",
      "apogee_km": 462.4943107512663,
      "perigee_km": 450.4569176306486,
      "latitude_deg": -16.532831321238426,
      "longitude_deg": 32.98104106744015,
      "height_km": 457.3746154986276,
      "semi_major_axis_km": 6834.612614190957,
      "eccentricity": 0.00088062,
      "inclination_deg": 51.8652,
      "raan_deg": 131.0328,
      "arg_perigee_deg": 145.8172,
      "mean_anomaly_deg": 55.0932,
      "mean_motion_rev_day": 15.36497671
    },
    {
      "epoch": "2026-04-14T20:00:01.999008Z",
      "apogee_km": 462.479350597092,
      "perigee_km": 450.5242004509455,
      "latitude_deg": -27.36293747675916,
      "longitude_deg": -43.4602172516571,
      "height_km": 470.44013155533946,
      "semi_major_axis_km": 6834.6387755240185,
      "eccentricity": 0.0008746,
      "inclination_deg": 51.8653,
      "raan_deg": 123.3841,
      "arg_perigee_deg": 151.0122,
      "mean_anomaly_deg": 173.4957,
      "mean_motion_rev_day": 15.36488849
    }
  ]
}